CELESTIS-02 & TAURUS R/B
1 25160U 98007D   26094.19891641  .00000112  00000+0  10604-3 0  9995
2 25160 108.0036 182.9511 0063770 259.6034 157.3686 14.22461909459993
