[{"OBJECT_NAME":"CELESTIS-02 & TAURUS R/B","OBJECT_ID":"1998-007D","EPOCH":"2026-04-04T04:46:26.377824","MEAN_MOTION":14.22461909,"ECCENTRICITY":0.00637702,"INCLINATION":108.0036,"RA_OF_ASC_NODE":182.9511,"ARG_OF_PERICENTER":259.6034,"MEAN_ANOMALY":157.3686,"EPHEMERIS_TYPE":0,"CLASSIFICATION_TYPE":"U","NORAD_CAT_ID":25160,"ELEMENT_SET_NO":999,"REV_AT_EPOCH":45999,"BSTAR":0.00010603934,"MEAN_MOTION_DOT":1.12e-6,"MEAN_MOTION_DDOT":0}]
